start=new Date('2022-01-11T00:00:00.000Z').valueOf();
sats=[{"FILE":"3268856","MEAN_MOTION_DDOT":"0.0000000000000","OBJECT_TYPE":"PAYLOAD","REF_FRAME":"TEME","OBJECT_NAME":"STARLINK-1267","TLE_LINE1":"1 45384U 20019AA  22010.59297508  .00001557  00000-0  12334-3 0  9990","BSTAR":"0.00012334000000","RCS_SIZE":"LARGE","TLE_LINE2":"2 45384  53.0555 126.1038 0001692  97.1160 263.0021 15.06410510101045","PERIOD":"95.591","MEAN_ANOMALY":"263.0021","SITE":"AFETR","GP_ID":"193593487","OBJECT_ID":"2020-019AA","MEAN_MOTION_DOT":"0.00001557","INCLINATION":"53.0555","PERIAPSIS":"546.010","MEAN_ELEMENT_THEORY":"SGP4","NORAD_CAT_ID":"45384","TIME_SYSTEM":"UTC","SEMIMAJOR_AXIS":"6925.316","DECAY_DATE":null,"REV_AT_EPOCH":"10104","ECCENTRICITY":"0.00016920","EPHEMERIS_TYPE":"0","EPOCH":"2022-01-10T14:13:53.046912","APOAPSIS":"548.353","COUNTRY_CODE":"US","ELEMENT_SET_NO":"999","LAUNCH_DATE":"2020-03-18","CLASSIFICATION_TYPE":"U","MEAN_MOTION":"15.06410510","CENTER_NAME":"EARTH","RA_OF_ASC_NODE":"126.1038","ARG_OF_PERICENTER":"97.1160"},{"CENTER_NAME":"EARTH","MEAN_MOTION":"15.06402594","RA_OF_ASC_NODE":"126.1011","ARG_OF_PERICENTER":"99.2249","CLASSIFICATION_TYPE":"U","EPOCH":"2022-01-10T14:19:11.638272","ELEMENT_SET_NO":"999","COUNTRY_CODE":"US","APOAPSIS":"548.353","LAUNCH_DATE":"2020-03-18","MEAN_ELEMENT_THEORY":"SGP4","NORAD_CAT_ID":"45386","TIME_SYSTEM":"UTC","EPHEMERIS_TYPE":"0","DECAY_DATE":null,"REV_AT_EPOCH":"10105","SEMIMAJOR_AXIS":"6925.341","ECCENTRICITY":"0.00016570","OBJECT_ID":"2020-019AC","INCLINATION":"53.0540","MEAN_MOTION_DOT":"0.00000020","PERIAPSIS":"546.058","MEAN_ANOMALY":"260.8927","TLE_LINE2":"2 45386  53.0540 126.1011 0001657  99.2249 260.8927 15.06402594101058","PERIOD":"95.592","SITE":"AFETR","GP_ID":"193601929","OBJECT_NAME":"STARLINK-1272","TLE_LINE1":"1 45386U 20019AC  22010.59666248  .00000020  00000-0  20238-4 0  9990","BSTAR":"0.00002023800000","RCS_SIZE":"LARGE","FILE":"3269035","MEAN_MOTION_DDOT":"0.0000000000000","OBJECT_TYPE":"PAYLOAD","REF_FRAME":"TEME"},{"TIME_SYSTEM":"UTC","EPHEMERIS_TYPE":"0","ECCENTRICITY":"0.00017390","DECAY_DATE":null,"SEMIMAJOR_AXIS":"6925.339","REV_AT_EPOCH":"10104","MEAN_ELEMENT_THEORY":"SGP4","NORAD_CAT_ID":"45387","ELEMENT_SET_NO":"999","APOAPSIS":"548.409","COUNTRY_CODE":"US","LAUNCH_DATE":"2020-03-18","EPOCH":"2022-01-10T14:51:02.177280","CLASSIFICATION_TYPE":"U","ARG_OF_PERICENTER":"101.3285","CENTER_NAME":"EARTH","MEAN_MOTION":"15.06403005","RA_OF_ASC_NODE":"125.9957","OBJECT_TYPE":"PAYLOAD","REF_FRAME":"TEME","FILE":"3268856","MEAN_MOTION_DDOT":"0.0000000000000","RCS_SIZE":"LARGE","OBJECT_NAME":"STARLINK-1274","TLE_LINE1":"1 45387U 20019AD  22010.61877520  .00001954  00000-0  15005-3 0  9993","BSTAR":"0.00015005000000","GP_ID":"193591986","SITE":"AFETR","MEAN_ANOMALY":"258.7899","TLE_LINE2":"2 45387  53.0543 125.9957 0001739 101.3285 258.7899 15.06403005101045","PERIOD":"95.592","INCLINATION":"53.0543","MEAN_MOTION_DOT":"0.00001954","PERIAPSIS":"546.000","OBJECT_ID":"2020-019AD"},{"MEAN_MOTION_DDOT":"0.0000000000000","FILE":"3269118","REF_FRAME":"TEME","OBJECT_TYPE":"PAYLOAD","TLE_LINE1":"1 45388U 20019AE  22010.65379080 -.00000127  00000-0  10376-4 0  9995","BSTAR":"0.00001037600000","OBJECT_NAME":"STARLINK-1280","RCS_SIZE":"LARGE","TLE_LINE2":"2 45388  53.0539 145.8317 0002130  89.8857 270.2376 15.06413578100766","PERIOD":"95.591","MEAN_ANOMALY":"270.2376","GP_ID":"193622639","SITE":"AFETR","OBJECT_ID":"2020-019AE","PERIAPSIS":"545.697","MEAN_MOTION_DOT":"-0.00000127","INCLINATION":"53.0539","MEAN_ELEMENT_THEORY":"SGP4","NORAD_CAT_ID":"45388","SEMIMAJOR_AXIS":"6925.307","DECAY_DATE":null,"REV_AT_EPOCH":"10076","ECCENTRICITY":"0.00021300","EPHEMERIS_TYPE":"0","TIME_SYSTEM":"UTC","EPOCH":"2022-01-10T15:41:27.525120","LAUNCH_DATE":"2020-03-18","APOAPSIS":"548.647","COUNTRY_CODE":"US","ELEMENT_SET_NO":"999","CLASSIFICATION_TYPE":"U","RA_OF_ASC_NODE":"145.8317","MEAN_MOTION":"15.06413578","CENTER_NAME":"EARTH","ARG_OF_PERICENTER":"89.8857"},{"CLASSIFICATION_TYPE":"U","CENTER_NAME":"EARTH","MEAN_MOTION":"15.06402264","RA_OF_ASC_NODE":"125.9139","ARG_OF_PERICENTER":"87.4585","MEAN_ELEMENT_THEORY":"SGP4","NORAD_CAT_ID":"45389","TIME_SYSTEM":"UTC","EPHEMERIS_TYPE":"0","ECCENTRICITY":"0.00018260","DECAY_DATE":null,"SEMIMAJOR_AXIS":"6925.342","REV_AT_EPOCH":"10105","EPOCH":"2022-01-10T15:12:16.680960","ELEMENT_SET_NO":"999","COUNTRY_CODE":"US","APOAPSIS":"548.471","LAUNCH_DATE":"2020-03-18","MEAN_ANOMALY":"272.6613","TLE_LINE2":"2 45389  53.0559 125.9139 0001826  87.4585 272.6613 15.06402264101056","PERIOD":"95.592","GP_ID":"193623890","SITE":"AFETR","OBJECT_ID":"2020-019AF","INCLINATION":"53.0559","MEAN_MOTION_DOT":"0.00000216","PERIAPSIS":"545.942","FILE":"3269118","MEAN_MOTION_DDOT":"0.0000000000000","OBJECT_TYPE":"PAYLOAD","REF_FRAME":"TEME","OBJECT_NAME":"STARLINK-1283","BSTAR":"0.00003342500000","TLE_LINE1":"1 45389U 20019AF  22010.63352640  .00000216  00000-0  33425-4 0  9995","RCS_SIZE":"LARGE"},{"OBJECT_TYPE":"PAYLOAD","REF_FRAME":"TEME","FILE":"3269036","MEAN_MOTION_DDOT":"0.0000000000000","RCS_SIZE":"LARGE","OBJECT_NAME":"STARLINK-1284","BSTAR":"0.00003982400000","TLE_LINE1":"1 45390U 20019AG  22010.60771610  .00000312  00000-0  39824-4 0  9992","SITE":"AFETR","GP_ID":"193601697","MEAN_ANOMALY":"285.7838","TLE_LINE2":"2 45390  53.0553 126.0552 0001499  74.3317 285.7838 15.06407348101048","PERIOD":"95.592","INCLINATION":"53.0553","MEAN_MOTION_DOT":"0.00000312","PERIAPSIS":"546.153","OBJECT_ID":"2020-019AG","TIME_SYSTEM":"UTC","EPHEMERIS_TYPE":"0","REV_AT_EPOCH":"10104","DECAY_DATE":null,"SEMIMAJOR_AXIS":"6925.326","ECCENTRICITY":"0.00014990","MEAN_ELEMENT_THEORY":"SGP4","NORAD_CAT_ID":"45390","ELEMENT_SET_NO":"999","COUNTRY_CODE":"US","APOAPSIS":"548.229","LAUNCH_DATE":"2020-03-18","EPOCH":"2022-01-10T14:35:06.671040","CLASSIFICATION_TYPE":"U","ARG_OF_PERICENTER":"74.3317","CENTER_NAME":"EARTH","MEAN_MOTION":"15.06407348","RA_OF_ASC_NODE":"126.0552"},{"EPOCH":"2022-01-10T14:56:21.358752","LAUNCH_DATE":"2020-03-18","COUNTRY_CODE":"US","APOAPSIS":"548.218","ELEMENT_SET_NO":"999","NORAD_CAT_ID":"45391","MEAN_ELEMENT_THEORY":"SGP4","SEMIMAJOR_AXIS":"6925.296","DECAY_DATE":null,"ECCENTRICITY":"0.00015260","REV_AT_EPOCH":"10077","EPHEMERIS_TYPE":"0","TIME_SYSTEM":"UTC","RA_OF_ASC_NODE":"125.9797","MEAN_MOTION":"15.06417142","CENTER_NAME":"EARTH","ARG_OF_PERICENTER":"104.0620","CLASSIFICATION_TYPE":"U","BSTAR":"-0.00034534000000","TLE_LINE1":"1 45391U 20019AH  22010.62246943 -.00005424  00000-0 -34534-3 0  9994","OBJECT_NAME":"STARLINK-1289","RCS_SIZE":"LARGE","MEAN_MOTION_DDOT":"0.0000000000000","FILE":"3269118","REF_FRAME":"TEME","OBJECT_TYPE":"PAYLOAD","OBJECT_ID":"2020-019AH","PERIAPSIS":"546.104","MEAN_MOTION_DOT":"-0.00005424","INCLINATION":"53.0551","TLE_LINE2":"2 45391  53.0551 125.9797 0001526 104.0620 256.0539 15.06417142100776","PERIOD":"95.591","MEAN_ANOMALY":"256.0539","GP_ID":"193622390","SITE":"AFETR"},{"RCS_SIZE":"LARGE","OBJECT_NAME":"STARLINK-1290","BSTAR":"0.00040123000000","TLE_LINE1":"1 45392U 20019AJ  22010.61949688  .00006093  00000-0  40123-3 0  9992","OBJECT_TYPE":"PAYLOAD","REF_FRAME":"TEME","FILE":"3269118","MEAN_MOTION_DDOT":"0.0000000000000","INCLINATION":"52.9930","MEAN_MOTION_DOT":"0.00006093","PERIAPSIS":"538.862","OBJECT_ID":"2020-019AJ","SITE":"AFETR","GP_ID":"193623139","MEAN_ANOMALY":"224.3370","PERIOD":"95.441","TLE_LINE2":"2 45392  52.9930 121.1977 0001545 135.7743 224.3370 15.08779343100803","ELEMENT_SET_NO":"999","COUNTRY_CODE":"US","APOAPSIS":"541.000","LAUNCH_DATE":"2020-03-18","EPOCH":"2022-01-10T14:52:04.530432","TIME_SYSTEM":"UTC","EPHEMERIS_TYPE":"0","ECCENTRICITY":"0.00015450","DECAY_DATE":null,"SEMIMAJOR_AXIS":"6918.066","REV_AT_EPOCH":"10080","NORAD_CAT_ID":"45392","MEAN_ELEMENT_THEORY":"SGP4","ARG_OF_PERICENTER":"135.7743","CENTER_NAME":"EARTH","MEAN_MOTION":"15.08779343","RA_OF_ASC_NODE":"121.1977","CLASSIFICATION_TYPE":"U"},{"CLASSIFICATION_TYPE":"U","ARG_OF_PERICENTER":"92.2391","RA_OF_ASC_NODE":"126.1433","CENTER_NAME":"EARTH","MEAN_MOTION":"15.06402319","EPHEMERIS_TYPE":"0","REV_AT_EPOCH":"10080","DECAY_DATE":null,"SEMIMAJOR_AXIS":"6925.341","ECCENTRICITY":"0.00013400","TIME_SYSTEM":"UTC","MEAN_ELEMENT_THEORY":"SGP4","NORAD_CAT_ID":"45393","LAUNCH_DATE":"2020-03-18","ELEMENT_SET_NO":"999","APOAPSIS":"548.134","COUNTRY_CODE":"US","EPOCH":"2022-01-10T14:03:16.220160","GP_ID":"193593488","SITE":"AFETR","MEAN_ANOMALY":"267.8752","TLE_LINE2":"2 45393  53.0541 126.1433 0001340  92.2391 267.8752 15.06402319100805","PERIOD":"95.592","PERIAPSIS":"546.278","MEAN_MOTION_DOT":"0.00000176","INCLINATION":"53.0541","OBJECT_ID":"2020-019AK","REF_FRAME":"TEME","OBJECT_TYPE":"PAYLOAD","MEAN_MOTION_DDOT":"0.0000000000000","FILE":"3268856","RCS_SIZE":"LARGE","BSTAR":"0.00003070100000","TLE_LINE1":"1 45393U 20019AK  22010.58560440  .00000176  00000-0  30701-4 0  9992","OBJECT_NAME":"STARLINK-1291"},{"INCLINATION":"53.0545","MEAN_MOTION_DOT":"0.00001920","PERIAPSIS":"545.899","OBJECT_ID":"2020-019AL","SITE":"AFETR","GP_ID":"193593733","PERIOD":"95.592","TLE_LINE2":"2 45394  53.0545 126.0142 0001878 103.7486 256.3712 15.06404648100788","MEAN_ANOMALY":"256.3712","RCS_SIZE":"LARGE","OBJECT_NAME":"STARLINK-1292","TLE_LINE1":"1 45394U 20019AL  22010.61508934  .00001920  00000-0  14773-3 0  9995","BSTAR":"0.00014773000000","OBJECT_TYPE":"PAYLOAD","REF_FRAME":"TEME","FILE":"3268856","MEAN_MOTION_DDOT":"0.0000000000000","ARG_OF_PERICENTER":"103.7486","MEAN_MOTION":"15.06404648","CENTER_NAME":"EARTH","RA_OF_ASC_NODE":"126.0142","CLASSIFICATION_TYPE":"U","APOAPSIS":"548.500","COUNTRY_CODE":"US","ELEMENT_SET_NO":"999","LAUNCH_DATE":"2020-03-18","EPOCH":"2022-01-10T14:45:43.718976","TIME_SYSTEM":"UTC","DECAY_DATE":null,"SEMIMAJOR_AXIS":"6925.334","REV_AT_EPOCH":"10078","ECCENTRICITY":"0.00018780","EPHEMERIS_TYPE":"0","NORAD_CAT_ID":"45394","MEAN_ELEMENT_THEORY":"SGP4"}];
